{"type": "FeatureCollection", "features": [ {"type": "Feature", "properties": {"norad_id": 66052, "name": "HRC MONOBLOCK CAMERA", "group": "stations", "lat": -50.8816913004609, "lon": 42.87427970936303, "alt_km": 409.2422375618271, "timestamp": "2025-12-11T20:41:13.867861+00:00", "meta": {"OBJECT_NAME": "HRC MONOBLOCK CAMERA", "OBJECT_ID": "1998-067XR", "EPOCH": "2025-12-11T04:07:53.480928", "MEAN_MOTION": 15.53961179, "ECCENTRICITY": 0.00035327, "INCLINATION": 51.6288, "RA_OF_ASC_NODE": 149.3227, "ARG_OF_PERICENTER": 176.6815, "MEAN_ANOMALY": 183.4199, "EPHEMERIS_TYPE": 0, "CLASSIFICATION_TYPE": "U", "NORAD_CAT_ID": 66052, "ELEMENT_SET_NO": 999, "REV_AT_EPOCH": 859, "BSTAR": 0.00078110434, "MEAN_MOTION_DOT": 0.00051254, "MEAN_MOTION_DDOT": 0}, "tle": {"line1": "1 66052U 98067XR  25345.17214677  .00051254  00000+0  78110-3 0  9999", "line2": "2 66052  51.6288 149.3227 0003532 176.6815 183.4199 15.53961179  8590"}}, "geometry": {"type": "Point", "coordinates": [42.87427970936303, -50.8816913004609]}}, {"type": "Feature", "properties": {"norad_id": 66174, "name": "HTV-X1", "group": "stations", "lat": 8.407201234367097, "lon": -39.89961239238766, "alt_km": 416.85989117375357, "timestamp": "2025-12-11T20:41:13.867872+00:00", "meta": {"OBJECT_NAME": "HTV-X1", "OBJECT_ID": "2025-241A", "EPOCH": "2025-12-11T12:13:14.837664", "MEAN_MOTION": 15.49508857, "ECCENTRICITY": 0.00033166, "INCLINATION": 51.6308, "RA_OF_ASC_NODE": 148.5724, "ARG_OF_PERICENTER": 235.7177, "MEAN_ANOMALY": 124.3498, "EPHEMERIS_TYPE": 0, "CLASSIFICATION_TYPE": "U", "NORAD_CAT_ID": 66174, "ELEMENT_SET_NO": 999, "REV_AT_EPOCH": 51, "BSTAR": 0.00026544961, "MEAN_MOTION_DOT": 0.00014464, "MEAN_MOTION_DDOT": 0}, "tle": {"line1": "1 66174U 25241A   25345.50919951  .00014464  00000+0  26545-3 0  9999", "line2": "2 66174  51.6308 148.5724 0003316 235.7177 124.3498 15.49508857   514"}}, "geometry": {"type": "Point", "coordinates": [-39.89961239238766, 8.407201234367097]}}, {"type": "Feature", "properties": {"norad_id": 66515, "name": "SZ-21 MODULE", "group": "stations", "lat": 21.992704416676172, "lon": 174.1933817179193, "alt_km": 378.5152346084833, "timestamp": "2025-12-11T20:41:13.867882+00:00", "meta": {"OBJECT_NAME": "SZ-21 MODULE", "OBJECT_ID": "2025-246C", "EPOCH": "2025-12-11T12:23:47.617440", "MEAN_MOTION": 15.62393058, "ECCENTRICITY": 0.00063024, "INCLINATION": 41.4773, "RA_OF_ASC_NODE": 23.5075, "ARG_OF_PERICENTER": 253.7333, "MEAN_ANOMALY": 106.2813, "EPHEMERIS_TYPE": 0, "CLASSIFICATION_TYPE": "U", "NORAD_CAT_ID": 66515, "ELEMENT_SET_NO": 999, "REV_AT_EPOCH": 425, "BSTAR": 0.00046258705, "MEAN_MOTION_DOT": 0.00042118, "MEAN_MOTION_DDOT": 0}, "tle": {"line1": "1 66515U 25246C   25345.51652335  .00042118  00000+0  46259-3 0  9995", "line2": "2 66515  41.4773  23.5075 0006302 253.7333 106.2813 15.62393058  4254"}}, "geometry": {"type": "Point", "coordinates": [174.1933817179193, 21.992704416676172]}}, {"type": "Feature", "properties": {"norad_id": 66645, "name": "SHENZHOU-22", "group": "stations", "lat": -37.76148317102581, "lon": -96.66564530385247, "alt_km": 397.25337926561133, "timestamp": "2025-12-11T20:41:13.867892+00:00", "meta": {"OBJECT_NAME": "SHENZHOU-22", "OBJECT_ID": "2025-272A", "EPOCH": "2025-12-11T11:56:35.385792", "MEAN_MOTION": 15.59100786, "ECCENTRICITY": 0.00085964, "INCLINATION": 41.4684, "RA_OF_ASC_NODE": 24.2481, "ARG_OF_PERICENTER": 20.0947, "MEAN_ANOMALY": 340.0228, "EPHEMERIS_TYPE": 0, "CLASSIFICATION_TYPE": "U", "NORAD_CAT_ID": 66645, "ELEMENT_SET_NO": 999, "REV_AT_EPOCH": 26357, "BSTAR": 0.00045432813, "MEAN_MOTION_DOT": 0.00036404, "MEAN_MOTION_DDOT": 0}, "tle": {"line1": "1 66645U 25272A   25345.49763178  .00036404  00000+0  45433-3 0  9997", "line2": "2 66645  41.4684  24.2481 0008596  20.0947 340.0228 15.59100786263571"}}, "geometry": {"type": "Point", "coordinates": [-96.66564530385247, -37.76148317102581]}}, {"type": "Feature", "properties": {"norad_id": 66664, "name": "SOYUZ-MS 28", "group": "stations", "lat": 8.407199724580872, "lon": -39.89961116333608, "alt_km": 416.8598913227379, "timestamp": "2025-12-11T20:41:13.867902+00:00", "meta": {"OBJECT_NAME": "SOYUZ-MS 28", "OBJECT_ID": "2025-275A", "EPOCH": "2025-12-11T12:13:14.837664", "MEAN_MOTION": 15.49508857, "ECCENTRICITY": 0.00033166, "INCLINATION": 51.6308, "RA_OF_ASC_NODE": 148.5724, "ARG_OF_PERICENTER": 235.7177, "MEAN_ANOMALY": 124.3498, "EPHEMERIS_TYPE": 0, "CLASSIFICATION_TYPE": "U", "NORAD_CAT_ID": 66664, "ELEMENT_SET_NO": 999, "REV_AT_EPOCH": 128, "BSTAR": 0.00026544961, "MEAN_MOTION_DOT": 0.00014464, "MEAN_MOTION_DDOT": 0}, "tle": {"line1": "1 66664U 25275A   25345.50919951  .00014464  00000+0  26545-3 0  9990", "line2": "2 66664  51.6308 148.5724 0003316 235.7177 124.3498 15.49508857  1283"}}, "geometry": {"type": "Point", "coordinates": [-39.89961116333608, 8.407199724580872]}}, {"type": "Feature", "properties": {"norad_id": 66906, "name": "1998-067XS", "group": "stations", "lat": -12.188069271588596, "lon": -23.376925139386223, "alt_km": 414.92184463765625, "timestamp": "2025-12-11T20:41:13.867912+00:00", "meta": {"OBJECT_NAME": "1998-067XS", "OBJECT_ID": "1998-067XS", "EPOCH": "2025-12-11T04:22:42.253536", "MEAN_MOTION": 15.50439588, "ECCENTRICITY": 0.00037466, "INCLINATION": 51.6302, "RA_OF_ASC_NODE": 150.1407, "ARG_OF_PERICENTER": 195.2111, "MEAN_ANOMALY": 164.8766, "EPHEMERIS_TYPE": 0, "CLASSIFICATION_TYPE": "U", "NORAD_CAT_ID": 66906, "ELEMENT_SET_NO": 999, "REV_AT_EPOCH": 137, "BSTAR": 0.00067409178, "MEAN_MOTION_DOT": 0.00038814, "MEAN_MOTION_DDOT": 0}, "tle": {"line1": "1 66906U 98067XS  25345.18243349  .00038814  00000+0  67409-3 0  9992", "line2": "2 66906  51.6302 150.1407 0003746 195.2111 164.8766 15.50439588  1371"}}, "geometry": {"type": "Point", "coordinates": [-23.376925139386223, -12.188069271588596]}}, {"type": "Feature", "properties": {"norad_id": 66907, "name": "1998-067XT", "group": "stations", "lat": -21.57442171193202, "lon": -15.00192341422039, "alt_km": 413.01265270498607, "timestamp": "2025-12-11T20:41:13.867922+00:00", "meta": {"OBJECT_NAME": "1998-067XT", "OBJECT_ID": "1998-067XT", "EPOCH": "2025-12-09T12:07:37.114752", "MEAN_MOTION": 15.50864429, "ECCENTRICITY": 0.00048036, "INCLINATION": 51.6307, "RA_OF_ASC_NODE": 158.4423, "ARG_OF_PERICENTER": 208.5081, "MEAN_ANOMALY": 151.5646, "EPHEMERIS_TYPE": 0, "CLASSIFICATION_TYPE": "U", "NORAD_CAT_ID": 66907, "ELEMENT_SET_NO": 999, "REV_AT_EPOCH": 111, "BSTAR": 0.0012921241, "MEAN_MOTION_DOT": 0.00076342, "MEAN_MOTION_DDOT": 0}, "tle": {"line1": "1 66907U 98067XT  25343.50529068  .00076342  00000+0  12921-2 0  9998", "line2": "2 66907  51.6307 158.4423 0004803 208.5081 151.5646 15.50864429  1113"}}, "geometry": {"type": "Point", "coordinates": [-15.00192341422039, -21.57442171193202]}}, {"type": "Feature", "properties": {"norad_id": 66908, "name": "1998-067XU", "group": "stations", "lat": -22.87071957074562, "lon": -13.736662177687679, "alt_km": 412.7960993420684, "timestamp": "2025-12-11T20:41:13.867932+00:00", "meta": {"OBJECT_NAME": "1998-067XU", "OBJECT_ID": "1998-067XU", "EPOCH": "2025-12-10T15:57:23.331168", "MEAN_MOTION": 15.51115637, "ECCENTRICITY": 0.00048129, "INCLINATION": 51.6304, "RA_OF_ASC_NODE": 152.6848, "ARG_OF_PERICENTER": 213.5482, "MEAN_ANOMALY": 146.5203, "EPHEMERIS_TYPE": 0, "CLASSIFICATION_TYPE": "U", "NORAD_CAT_ID": 66908, "ELEMENT_SET_NO": 999, "REV_AT_EPOCH": 129, "BSTAR": 0.0014713865, "MEAN_MOTION_DOT": 0.00087912, "MEAN_MOTION_DDOT": 0}, "tle": {"line1": "1 66908U 98067XU  25344.66485337  .00087912  00000+0  14714-2 0  9994", "line2": "2 66908  51.6304 152.6848 0004812 213.5482 146.5203 15.51115637  1292"}}, "geometry": {"type": "Point", "coordinates": [-13.736662177687679, -22.87071957074562]}}, {"type": "Feature", "properties": {"norad_id": 66909, "name": "SILVERSAT", "group": "stations", "lat": -24.185647807080908, "lon": -12.417397261122932, "alt_km": 412.7255831979455, "timestamp": "2025-12-11T20:41:13.867944+00:00", "meta": {"OBJECT_NAME": "SILVERSAT", "OBJECT_ID": "1998-067XV", "EPOCH": "2025-12-11T15:08:30.108192", "MEAN_MOTION": 15.5141128, "ECCENTRICITY": 0.00045448, "INCLINATION": 51.6302, "RA_OF_ASC_NODE": 147.8859, "ARG_OF_PERICENTER": 221.0614, "MEAN_ANOMALY": 139.0034, "EPHEMERIS_TYPE": 0, "CLASSIFICATION_TYPE": "U", "NORAD_CAT_ID": 66909, "ELEMENT_SET_NO": 999, "REV_AT_EPOCH": 144, "BSTAR": 0.0013283829, "MEAN_MOTION_DOT": 0.00080084, "MEAN_MOTION_DDOT": 0}, "tle": {"line1": "1 66909U 98067XV  25345.63090403  .00080084  00000+0  13284-2 0  9993", "line2": "2 66909  51.6302 147.8859 0004544 221.0614 139.0034 15.51411280  1441"}}, "geometry": {"type": "Point", "coordinates": [-12.417397261122932, -24.185647807080908]}}, {"type": "Feature", "properties": {"norad_id": 66910, "name": "1998-067XW", "group": "stations", "lat": -29.88097354272572, "lon": -6.197789846866076, "alt_km": 412.2014490281117, "timestamp": "2025-12-11T20:41:13.867955+00:00", "meta": {"OBJECT_NAME": "1998-067XW", "OBJECT_ID": "1998-067XW", "EPOCH": "2025-12-11T12:00:59.894208", "MEAN_MOTION": 15.51542196, "ECCENTRICITY": 0.00053507, "INCLINATION": 51.6307, "RA_OF_ASC_NODE": 148.5174, "ARG_OF_PERICENTER": 201.355, "MEAN_ANOMALY": 158.7217, "EPHEMERIS_TYPE": 0, "CLASSIFICATION_TYPE": "U", "NORAD_CAT_ID": 66910, "ELEMENT_SET_NO": 999, "REV_AT_EPOCH": 142, "BSTAR": 0.0016174677, "MEAN_MOTION_DOT": 0.00098314, "MEAN_MOTION_DDOT": 0}, "tle": {"line1": "1 66910U 98067XW  25345.50069322  .00098314  00000+0  16175-2 0  9994", "line2": "2 66910  51.6307 148.5174 0005350 201.3550 158.7217 15.51542196  1422"}}, "geometry": {"type": "Point", "coordinates": [-6.197789846866076, -29.88097354272572]}}]}